NORAD_CAT_ID,OBJECT_NAME,OBJECT_TYPE,EPOCH,MEAN_MOTION,ECCENTRICITY,INCLINATION,RA_OF_ASC_NODE,ARG_OF_PERICENTER,MEAN_ANOMALY,BSTAR,MEAN_MOTION_DOT,MEAN_MOTION_DDOT,TLE_LINE0,TLE_LINE1,TLE_LINE2,SEMIMAJOR_AXIS,PERIOD,APOGEE,PERIGEE,DECAYED
51736.0,STARLINK-3447,PAYLOAD,2023-11-18 11:26:37,15.08837493,0.000137,53.2176,140.0488,88.5405,271.5744,8.0808e-05,9.98e-06,0.0,0 STARLINK-3447,1 51736U 22016Y   23322.47682625  .00000998  00000-0  80808-4 0  9999,2 51736  53.2176 140.0488 0001370  88.5405 271.5744 15.08837493 96412,6917.888,95.438,540.701,538.805,0.0
51736.0,STARLINK-3447,PAYLOAD,2023-11-19 11:17:24,15.08840354,0.0001369,53.2142,135.5871,82.79,277.3247,6.8899e-05,8.09e-06,0.0,0 STARLINK-3447,1 51736U 22016Y   23323.47042557  .00000809  00000-0  68899-4 0  9991,2 51736  53.2142 135.5871 0001369  82.7900 277.3247 15.08840354 97697,6917.879,95.438,540.691,538.797,0.0
51736.0,STARLINK-3447,PAYLOAD,2023-11-19 20:49:43,15.08843326,0.0001352,53.2167,133.8041,88.7972,271.3175,8.536e-05,1.071e-05,0.0,0 STARLINK-3447,1 51736U 22016Y   23323.86786242  .00001071  00000-0  85360-4 0  9994,2 51736  53.2167 133.8041 0001352  88.7972 271.3175 15.08843326 96629,6917.87,95.437,540.671,538.8,0.0
51736.0,STARLINK-3447,PAYLOAD,2023-11-20 12:43:35,15.08838243,0.0001321,53.2162,130.8295,88.0976,272.0167,6.2665e-05,7.1e-06,0.0,0 STARLINK-3447,1 51736U 22016Y   23324.53026707  .00000710  00000-0  62665-4 0  9994,2 51736  53.2162 130.8295 0001321  88.0976 272.0167 15.08838243 96727,6917.886,95.438,540.665,538.837,0.0
51736.0,STARLINK-3447,PAYLOAD,2023-11-20 17:29:44,15.08840764,0.0001341,53.2164,129.9374,88.2373,271.8773,7.8261e-05,9.58e-06,0.0,0 STARLINK-3447,1 51736U 22016Y   23324.72898519  .00000958  00000-0  78261-4 0  9996,2 51736  53.2164 129.9374 0001341  88.2373 271.8773 15.08840764 97880,6917.878,95.438,540.671,538.815,0.0
51736.0,STARLINK-3447,PAYLOAD,2023-11-21 10:58:58,15.08844132,0.0001336,53.2166,126.6661,89.5685,270.546,5.0838e-05,5.21e-06,0.0,0 STARLINK-3447,1 51736U 22016Y   23325.45762351  .00000521  00000-0  50838-4 0  9997,2 51736  53.2166 126.6661 0001336  89.5685 270.5460 15.08844132 96868,6917.868,95.437,540.657,538.809,0.0
51736.0,STARLINK-3447,PAYLOAD,2023-11-21 17:20:30,15.08847659,0.0001343,53.2165,125.4767,89.3912,270.7234,8.0669e-05,9.96e-06,0.0,0 STARLINK-3447,1 51736U 22016Y   23325.72257998  .00000996  00000-0  80669-4 0  9994,2 51736  53.2165 125.4767 0001343  89.3912 270.7234 15.08847659 96903,6917.857,95.437,540.651,538.793,0.0
51736.0,STARLINK-3447,PAYLOAD,2023-11-22 10:49:45,15.08844256,0.0001335,53.2167,122.206,87.7113,272.4032,9.8443e-05,1.279e-05,0.0,0 STARLINK-3447,1 51736U 22016Y   23326.45122076  .00001279  00000-0  98443-4 0  9997,2 51736  53.2167 122.2060 0001335  87.7113 272.4032 15.08844256 98145,6917.867,95.437,540.656,538.809,0.0
51736.0,STARLINK-3447,PAYLOAD,2023-11-22 14:00:31,15.08846578,0.0001334,53.2167,121.6114,87.2346,272.8799,0.00011683,1.572e-05,0.0,0 STARLINK-3447,1 51736U 22016Y   23326.58369874  .00001572  00000-0  11683-3 0  9996,2 51736  53.2167 121.6114 0001334  87.2346 272.8799 15.08846578 97030,6917.86,95.437,540.648,538.802,0.0
51736.0,STARLINK-3447,PAYLOAD,2023-11-22 17:11:17,15.08849249,0.0001357,53.217,121.0168,88.4861,271.6286,0.00012881,1.763e-05,0.0,0 STARLINK-3447,1 51736U 22016Y   23326.71617644  .00001763  00000-0  12881-3 0  9995,2 51736  53.2170 121.0168 0001357  88.4861 271.6286 15.08849249 97055,6917.852,95.437,540.656,538.778,0.0
51736.0,STARLINK-3447,PAYLOAD,2023-11-23 13:51:19,15.08832948,0.0001484,53.2171,117.1514,96.8222,263.2939,-4.0538e-05,-9.33e-06,0.0,0 STARLINK-3447,1 51736U 22016Y   23327.57731408 -.00000933  00000-0 -40538-4 0  9996,2 51736  53.2171 117.1514 0001484  96.8222 263.2939 15.08832948 97186,6917.902,95.438,540.794,538.74,0.0
51736.0,STARLINK-3447,PAYLOAD,2023-11-23 17:02:06,15.0881507,0.00014,53.217,116.5575,85.9058,274.2094,-0.00030598,-5.151e-05,0.0,0 STARLINK-3447,1 51736U 22016Y   23327.70979935 -.00005151  00000-0 -30598-3 0  9991,2 51736  53.2170 116.5575 0001400  85.9058 274.2094 15.08815070 98338,6917.957,95.439,540.79,538.853,0.0
51736.0,STARLINK-3447,PAYLOAD,2023-11-24 13:42:08,15.08822196,0.0001313,53.2171,112.6929,72.9269,287.1867,-8.9919e-05,-1.718e-05,0.0,0 STARLINK-3447,1 51736U 22016Y   23328.57092710 -.00001718  00000-0 -89919-4 0  9991,2 51736  53.2171 112.6929 0001313  72.9269 287.1867 15.08822196 97339,6917.935,95.439,540.708,538.891,0.0
51736.0,STARLINK-3447,PAYLOAD,2023-11-24 16:52:54,15.08829634,0.0001373,53.217,112.0967,84.2201,275.8947,2.5836e-05,1.23e-06,0.0,0 STARLINK-3447,1 51736U 22016Y   23328.70340422  .00000123  00000-0  25836-4 0  9997,2 51736  53.2170 112.0967 0001373  84.2201 275.8947 15.08829634 98486,6917.912,95.438,540.727,538.827,0.0
51736.0,STARLINK-3447,PAYLOAD,2023-11-25 13:32:54,15.08846157,0.0001148,53.2163,108.2298,77.4065,282.7056,0.00057549,8.884e-05,0.0,0 STARLINK-3447,1 51736U 22016Y   23329.56452046  .00008884  00000-0  57549-3 0  9995,2 51736  53.2163 108.2298 0001148  77.4065 282.7056 15.08846157 97480,6917.862,95.437,540.521,538.932,0.0
51736.0,STARLINK-3447,PAYLOAD,2023-11-25 18:19:03,15.08876541,0.0001407,53.2168,107.3381,95.7494,264.3659,0.0010998,0.00017276,0.0,0 STARLINK-3447,1 51736U 22016Y   23329.76323205  .00017276  00000-0  10998-2 0  9992,2 51736  53.2168 107.3381 0001407  95.7494 264.3659 15.08876541 97514,6917.769,95.435,540.607,538.66,0.0
51736.0,STARLINK-3447,PAYLOAD,2023-11-26 13:23:39,15.08873952,0.0002331,53.2164,103.7677,139.1676,220.9492,0.00018665,2.686e-05,0.0,0 STARLINK-3447,1 51736U 22016Y   23330.55809651  .00002686  00000-0  18665-3 0  9994,2 51736  53.2164 103.7677 0002331 139.1676 220.9492 15.08873952 97639,6917.777,95.435,541.254,538.029,0.0
51736.0,STARLINK-3447,PAYLOAD,2023-11-26 16:34:25,15.08874987,0.0001338,53.2163,103.1729,97.286,262.8284,0.00042519,6.492e-05,0.0,0 STARLINK-3447,1 51736U 22016Y   23330.69057676  .00006492  00000-0  42519-3 0  9995,2 51736  53.2163 103.1729 0001338  97.2860 262.8284 15.08874987 98785,6917.773,95.435,540.564,538.713,0.0
51736.0,STARLINK-3447,PAYLOAD,2023-11-27 14:49:50,15.08826938,0.0001378,53.2172,99.0099,103.0079,257.1068,0.00062169,9.617e-05,0.0,0 STARLINK-3447,1 51736U 22016Y   23331.61795028  .00009617  00000-0  62169-3 0  9993,2 51736  53.2172  99.0099 0001378 103.0079 257.1068 15.08826938 97790,6917.92,95.438,540.739,538.832,0.0
51736.0,STARLINK-3447,PAYLOAD,2023-11-27 16:25:14,15.08823114,0.0001664,53.2171,98.7129,57.0092,303.106,0.00068699,0.00010657,0.0,0 STARLINK-3447,1 51736U 22016Y   23331.68419471  .00010657  00000-0  68699-3 0  9995,2 51736  53.2171  98.7129 0001664  57.0092 303.1060 15.08823114 98934,6917.932,95.439,540.948,538.646,0.0
51736.0,STARLINK-3447,PAYLOAD,2023-11-28 14:40:38,15.08853221,0.0002047,53.2182,94.5468,47.7075,312.409,0.00098535,0.00015434,0.0,0 STARLINK-3447,1 51736U 22016Y   23332.61155508  .00015434  00000-0  98535-3 0  9997,2 51736  53.2182  94.5468 0002047  47.7075 312.4090 15.08853221 97947,6917.84,95.437,541.121,538.289,0.0
51736.0,STARLINK-3447,PAYLOAD,2023-11-28 17:51:24,15.08859922,0.0001937,53.2183,93.9513,51.0184,309.0981,0.0010862,0.00017051,0.0,0 STARLINK-3447,1 51736U 22016Y   23332.74403275  .00017051  00000-0  10862-2 0  9991,2 51736  53.2183  93.9513 0001937  51.0184 309.0981 15.08859922 99091,6917.819,95.436,541.024,538.345,0.0
51736.0,STARLINK-3447,PAYLOAD,2023-11-29 11:20:38,15.08855081,0.0001977,53.2199,90.6718,116.9876,243.1318,0.00054169,8.347e-05,0.0,0 STARLINK-3447,1 51736U 22016Y   23333.47266574  .00008347  00000-0  54169-3 0  9998,2 51736  53.2199  90.6718 0001977 116.9876 243.1318 15.08855081 99209,6917.834,95.437,541.067,538.332,0.0
51736.0,STARLINK-3447,PAYLOAD,2023-11-29 14:31:24,15.08854603,0.0001445,53.2178,90.0894,74.8565,285.2587,0.00052015,8.003e-05,0.0,0 STARLINK-3447,1 51736U 22016Y   23333.60514939  .00008003  00000-0  52015-3 0  9991,2 51736  53.2178  90.0894 0001445  74.8565 285.2587 15.08854603 98092,6917.836,95.437,540.7,538.701,0.0
51736.0,STARLINK-3447,PAYLOAD,2023-11-30 11:11:25,15.0884217,0.0001498,53.2187,86.222,106.2517,253.864,0.00079919,0.00012455,0.0,0 STARLINK-3447,1 51736U 22016Y   23334.46627215  .00012455  00000-0  79919-3 0  9996,2 51736  53.2187  86.2220 0001498 106.2517 253.8640 15.08842170 99354,6917.874,95.437,540.775,538.702,0.0
51736.0,STARLINK-3447,PAYLOAD,2023-12-01 11:02:13,15.08832487,0.0001566,53.2181,81.7648,86.6612,273.456,0.00068521,0.00010632,0.0,0 STARLINK-3447,1 51736U 22016Y   23335.45988163  .00010632  00000-0  68521-3 0  9990,2 51736  53.2181  81.7648 0001566  86.6612 273.4560 15.08832487 99501,6917.903,95.438,540.852,538.685,0.0
51736.0,STARLINK-3447,PAYLOAD,2023-12-01 14:12:59,15.08842305,0.0001663,53.2183,81.1674,99.0191,261.0989,0.00061514,9.516e-05,0.0,0 STARLINK-3447,1 51736U 22016Y   23335.59235926  .00009516  00000-0  61514-3 0  9991,2 51736  53.2183  81.1674 0001663  99.0191 261.0989 15.08842305 98398,6917.873,95.437,540.889,538.588,0.0
51736.0,STARLINK-3447,PAYLOAD,2023-12-02 12:28:22,15.08901804,0.0001548,53.2175,77.0055,84.7575,275.3594,0.0019472,0.0003089,0.0,0 STARLINK-3447,1 51736U 22016Y   23336.51970111  .00030890  00000-0  19472-2 0  9990,2 51736  53.2175  77.0055 0001548  84.7575 275.3594 15.08901804 99666,6917.691,95.434,540.627,538.486,0.0
51736.0,STARLINK-3447,PAYLOAD,2023-12-02 14:03:45,15.08889415,0.0001554,53.2172,76.7095,82.1287,277.9881,0.0010213,0.00016025,0.0,0 STARLINK-3447,1 51736U 22016Y   23336.58594084  .00016025  00000-0  10213-2 0  9996,2 51736  53.2172  76.7095 0001554  82.1287 277.9881 15.08889415 98548,6917.729,95.434,540.669,538.519,0.0
51736.0,STARLINK-3447,PAYLOAD,2023-12-03 12:19:10,15.08811894,0.0002799,53.2168,72.5443,160.8246,199.2852,-0.00054439,-8.936e-05,0.0,0 STARLINK-3447,1 51736U 22016Y   23337.51331634 -.00008936  00000-0 -54439-3 0  9993,2 51736  53.2168  72.5443 0002799 160.8246 199.2852 15.08811894 99816,6917.966,95.439,541.768,537.895,0.0
